{
    "CCSDS_OMM_VERS": "3.0",
    "COMMENT": "GENERATED VIA SPACE-TRACK.ORG API",
    "CREATION_DATE": "2025-05-22T17:14:14",
    "ORIGINATOR": "18 SPCS",
    "OBJECT_NAME": "NAVSTAR 73 (USA 260)",
    "OBJECT_ID": "2015-013A",
    "CENTER_NAME": "EARTH",
    "REF_FRAME": "TEME",
    "TIME_SYSTEM": "UTC",
    "MEAN_ELEMENT_THEORY": "SGP4",
    "EPOCH": "2025-05-22T04:16:59.661984",
    "MEAN_MOTION": "2.00574741",
    "ECCENTRICITY": "0.00985270",
    "INCLINATION": "53.2414",
    "RA_OF_ASC_NODE": "220.3559",
    "ARG_OF_PERICENTER": "35.1341",
    "MEAN_ANOMALY": "325.5690",
    "EPHEMERIS_TYPE": "0",
    "CLASSIFICATION_TYPE": "U",
    "NORAD_CAT_ID": "40534",
    "ELEMENT_SET_NO": "999",
    "REV_AT_EPOCH": "7398",
    "BSTAR": "0.00000000000000",
    "MEAN_MOTION_DOT": "0.00000019",
    "MEAN_MOTION_DDOT": "0.0000000000000",
    "SEMIMAJOR_AXIS": "26559.365",
    "PERIOD": "717.937",
    "APOAPSIS": "20442.911",
    "PERIAPSIS": "19919.548",
    "OBJECT_TYPE": "PAYLOAD",
    "RCS_SIZE": "LARGE",
    "COUNTRY_CODE": "US",
    "LAUNCH_DATE": "2015-03-25",
    "SITE": "AFETR",
    "DECAY_DATE": null,
    "FILE": "4736220",
    "GP_ID": "288142616",
    "TLE_LINE0": "0 NAVSTAR 73 (USA 260)",
    "TLE_LINE1": "1 40534U 15013A   25142.17846831  .00000019  00000-0  00000-0 0  9998",
    "TLE_LINE2": "2 40534  53.2414 220.3559 0098527  35.1341 325.5690  2.00574741 73988"
}